[
    {
        "Altitude(m)": 617719.7851023907,
        "Argument of Periapsis(deg)": 0.0,
        "Eccentricity": 0.0,
        "Inclination(deg)": 60.0,
        "Latitude(deg)": -41.10267843759798,
        "Longitude(deg)": -39.90530479763369,
        "Mean Anomaly(deg)": -130.9091,
        "RAAN(deg)": 210.0,
        "Satellite Name": "Test1 938",
        "Satellite Number": 938,
        "Semi-Major Axis(m)": 6980739.136638005,
        "Time(s)": 0
    },
    {
        "Altitude(m)": 617911.3208555479,
        "Argument of Periapsis(deg)": 0.00010418945913296404,
        "Eccentricity": 0.0,
        "Inclination(deg)": 60.0,
        "Latitude(deg)": -41.565869918558526,
        "Longitude(deg)": -39.40089716206303,
        "Mean Anomaly(deg)": -130.28899385453815,
        "RAAN(deg)": 209.99957995086027,
        "Satellite Name": "Test1 938",
        "Satellite Number": 938,
        "Semi-Major Axis(m)": 6980739.136638005,
        "Time(s)": 10
    }
]